{
  "type": "FeatureCollection",
  "features": [
    {
      "type": "Feature",
      "properties": {
        "norad_id": 66477,
        "name": "STARLINK-35354",
        "group": "last-30-days",
        "lat": -3.6975039613038296,
        "lon": 93.82788440673392,
        "alt_km": 415.62375353117204,
        "timestamp": "2025-12-08T03:50:05.783153+00:00",
        "meta_object_name": "STARLINK-35354",
        "meta_object_id": "2025-262X",
        "meta_epoch": "2025-12-07T06:00:04.999968",
        "meta_mean_motion": 15.50602002,
        "meta_eccentricity": 0.00014205,
        "meta_inclination": 43.0006,
        "meta_ra_of_asc_node": 103.1265,
        "meta_arg_of_pericenter": 258.5041,
        "meta_mean_anomaly": 52.0111,
        "meta_ephemeris_type": 0,
        "meta_classification_type": "U",
        "meta_norad_cat_id": 66477,
        "meta_element_set_no": 999,
        "meta_rev_at_epoch": 475,
        "meta_bstar": -0.0013252093,
        "meta_mean_motion_dot": -0.00077384,
        "meta_mean_motion_ddot": 0,
        "tle_line1": "1 66477U 25262X   25341.25005787 -.00077384  00000+0 -13252-2 0  9991",
        "tle_line2": "2 66477  43.0006 103.1265 0001420 258.5041  52.0111 15.50602002  4752"
      },
      "geometry": {
        "type": "Point",
        "coordinates": [
          93.82788440673392,
          -3.6975039613038296
        ]
      }
    },
    {
      "type": "Feature",
      "properties": {
        "norad_id": 66478,
        "name": "STARLINK-35283",
        "group": "last-30-days",
        "lat": -2.2498326659203816,
        "lon": 95.38228929774691,
        "alt_km": 414.9048108959623,
        "timestamp": "2025-12-08T03:50:05.783163+00:00",
        "meta_object_name": "STARLINK-35283",
        "meta_object_id": "2025-262Y",
        "meta_epoch": "2025-12-07T06:00:04.999968",
        "meta_mean_motion": 15.50525786,
        "meta_eccentricity": 0.00015966,
        "meta_inclination": 43.0006,
        "meta_ra_of_asc_node": 103.1211,
        "meta_arg_of_pericenter": 259.4412,
        "meta_mean_anomaly": 53.0103,
        "meta_ephemeris_type": 0,
        "meta_classification_type": "U",
        "meta_norad_cat_id": 66478,
        "meta_element_set_no": 999,
        "meta_rev_at_epoch": 475,
        "meta_bstar": 0.0011844418,
        "meta_mean_motion_dot": 0.00069632,
        "meta_mean_motion_ddot": 0,
        "tle_line1": "1 66478U 25262Y   25341.25005787  .00069632  00000+0  11844-2 0  9992",
        "tle_line2": "2 66478  43.0006 103.1211 0001596 259.4412  53.0103 15.50525786  4755"
      },
      "geometry": {
        "type": "Point",
        "coordinates": [
          95.38228929774691,
          -2.2498326659203816
        ]
      }
    },
    {
      "type": "Feature",
      "properties": {
        "norad_id": 66479,
        "name": "STARLINK-35581",
        "group": "last-30-days",
        "lat": -4.973223307740955,
        "lon": 92.45046719480555,
        "alt_km": 415.6185357880868,
        "timestamp": "2025-12-08T03:50:05.783173+00:00",
        "meta_object_name": "STARLINK-35581",
        "meta_object_id": "2025-262Z",
        "meta_epoch": "2025-12-07T06:00:04.999968",
        "meta_mean_motion": 15.50585956,
        "meta_eccentricity": 0.00014278,
        "meta_inclination": 43.0006,
        "meta_ra_of_asc_node": 103.1307,
        "meta_arg_of_pericenter": 259.6745,
        "meta_mean_anomaly": 48.9288,
        "meta_ephemeris_type": 0,
        "meta_classification_type": "U",
        "meta_norad_cat_id": 66479,
        "meta_element_set_no": 999,
        "meta_rev_at_epoch": 475,
        "meta_bstar": -0.00082809014,
        "meta_mean_motion_dot": -0.00048632,
        "meta_mean_motion_ddot": 0,
        "tle_line1": "1 66479U 25262Z   25341.25005787 -.00048632  00000+0 -82809-3 0  9992",
        "tle_line2": "2 66479  43.0006 103.1307 0001427 259.6745  48.9288 15.50585956  4758"
      },
      "geometry": {
        "type": "Point",
        "coordinates": [
          92.45046719480555,
          -4.973223307740955
        ]
      }
    },
    {
      "type": "Feature",
      "properties": {
        "norad_id": 66480,
        "name": "STARLINK-35670",
        "group": "last-30-days",
        "lat": -1.0859968558688078,
        "lon": 96.62833392292823,
        "alt_km": 415.3614079608624,
        "timestamp": "2025-12-08T03:50:05.783184+00:00",
        "meta_object_name": "STARLINK-35670",
        "meta_object_id": "2025-262AA",
        "meta_epoch": "2025-12-07T06:00:04.999968",
        "meta_mean_motion": 15.50600423,
        "meta_eccentricity": 0.00014145,
        "meta_inclination": 43.0007,
        "meta_ra_of_asc_node": 103.116,
        "meta_arg_of_pericenter": 258.3335,
        "meta_mean_anomaly": 56.0179,
        "meta_ephemeris_type": 0,
        "meta_classification_type": "U",
        "meta_norad_cat_id": 66480,
        "meta_element_set_no": 999,
        "meta_rev_at_epoch": 475,
        "meta_bstar": -0.0013027882,
        "meta_mean_motion_dot": -0.00076089,
        "meta_mean_motion_ddot": 0,
        "tle_line1": "1 66480U 25262AA  25341.25005787 -.00076089  00000+0 -13028-2 0  9997",
        "tle_line2": "2 66480  43.0007 103.1160 0001414 258.3335  56.0179 15.50600423  4751"
      },
      "geometry": {
        "type": "Point",
        "coordinates": [
          96.62833392292823,
          -1.0859968558688078
        ]
      }
    },
    {
      "type": "Feature",
      "properties": {
        "norad_id": 66481,
        "name": "STARLINK-35698",
        "group": "last-30-days",
        "lat": 0.23494055659017551,
        "lon": 98.040535996693,
        "alt_km": 415.1387897829836,
        "timestamp": "2025-12-08T03:50:05.783195+00:00",
        "meta_object_name": "STARLINK-35698",
        "meta_object_id": "2025-262AB",
        "meta_epoch": "2025-12-07T06:00:04.999968",
        "meta_mean_motion": 15.50594608,
        "meta_eccentricity": 0.00015488,
        "meta_inclination": 43.0007,
        "meta_ra_of_asc_node": 103.1105,
        "meta_arg_of_pericenter": 261.2057,
        "meta_mean_anomaly": 55.0689,
        "meta_ephemeris_type": 0,
        "meta_classification_type": "U",
        "meta_norad_cat_id": 66481,
        "meta_element_set_no": 999,
        "meta_rev_at_epoch": 475,
        "meta_bstar": -0.0011206291,
        "meta_mean_motion_dot": -0.00065572,
        "meta_mean_motion_ddot": 0,
        "tle_line1": "1 66481U 25262AB  25341.25005787 -.00065572  00000+0 -11206-2 0  9999",
        "tle_line2": "2 66481  43.0007 103.1105 0001548 261.2057  55.0689 15.50594608  4755"
      },
      "geometry": {
        "type": "Point",
        "coordinates": [
          98.040535996693,
          0.23494055659017551
        ]
      }
    },
    {
      "type": "Feature",
      "properties": {
        "norad_id": 66482,
        "name": "STARLINK-35648",
        "group": "last-30-days",
        "lat": 1.588744483729647,
        "lon": 99.48939847970985,
        "alt_km": 414.86578543377254,
        "timestamp": "2025-12-08T03:50:05.783205+00:00",
        "meta_object_name": "STARLINK-35648",
        "meta_object_id": "2025-262AC",
        "meta_epoch": "2025-12-07T06:00:04.999968",
        "meta_mean_motion": 15.50507303,
        "meta_eccentricity": 0.0001318,
        "meta_inclination": 43.0006,
        "meta_ra_of_asc_node": 103.1058,
        "meta_arg_of_pericenter": 256.7618,
        "meta_mean_anomaly": 61.5421,
        "meta_ephemeris_type": 0,
        "meta_classification_type": "U",
        "meta_norad_cat_id": 66482,
        "meta_element_set_no": 999,
        "meta_rev_at_epoch": 460,
        "meta_bstar": 0.00028713869,
        "meta_mean_motion_dot": 0.00016496,
        "meta_mean_motion_ddot": 0,
        "tle_line1": "1 66482U 25262AC  25341.25005787  .00016496  00000+0  28714-3 0  9992",
        "tle_line2": "2 66482  43.0006 103.1058 0001318 256.7618  61.5421 15.50507303  4605"
      },
      "geometry": {
        "type": "Point",
        "coordinates": [
          99.48939847970985,
          1.588744483729647
        ]
      }
    },
    {
      "type": "Feature",
      "properties": {
        "norad_id": 66483,
        "name": "STARLINK-35654",
        "group": "last-30-days",
        "lat": 2.8561617226833578,
        "lon": 100.84726938162024,
        "alt_km": 414.8162468317223,
        "timestamp": "2025-12-08T03:50:05.783215+00:00",
        "meta_object_name": "STARLINK-35654",
        "meta_object_id": "2025-262AD",
        "meta_epoch": "2025-12-07T06:00:04.999968",
        "meta_mean_motion": 15.50588195,
        "meta_eccentricity": 0.0001405,
        "meta_inclination": 43.0007,
        "meta_ra_of_asc_node": 103.1004,
        "meta_arg_of_pericenter": 260.5941,
        "meta_mean_anomaly": 59.5154,
        "meta_ephemeris_type": 0,
        "meta_classification_type": "U",
        "meta_norad_cat_id": 66483,
        "meta_element_set_no": 999,
        "meta_rev_at_epoch": 475,
        "meta_bstar": -0.00092539006,
        "meta_mean_motion_dot": -0.00054272,
        "meta_mean_motion_ddot": 0,
        "tle_line1": "1 66483U 25262AD  25341.25005787 -.00054272  00000+0 -92539-3 0  9995",
        "tle_line2": "2 66483  43.0007 103.1004 0001405 260.5941  59.5154 15.50588195  4751"
      },
      "geometry": {
        "type": "Point",
        "coordinates": [
          100.84726938162024,
          2.8561617226833578
        ]
      }
    }
  ]
}